CCSDS_OMM_VERS = 2.0
CREATION_DATE  = 
ORIGINATOR     = 

OBJECT_NAME    = STARLINK-37074
OBJECT_ID      = 2026-042E
CENTER_NAME    = EARTH
REF_FRAME      = TEME
TIME_SYSTEM    = UTC
MEAN_ELEMENT_THEORY = SGP/SGP4

EPOCH          = 2026-03-16T06:00:02.999808
MEAN_MOTION    = 15.82813551
ECCENTRICITY   = .00010841
INCLINATION    = 53.1598
RA_OF_ASC_NODE = 161.8699
ARG_OF_PERICENTER = 100.0745
MEAN_ANOMALY   = 155.3273

EPHEMERIS_TYPE = 0
CLASSIFICATION_TYPE = U
NORAD_CAT_ID   = 68073
ELEMENT_SET_NO = 999
REV_AT_EPOCH   = 310
BSTAR          = -.73946053E-2
MEAN_MOTION_DOT = -.1420918E-1
MEAN_MOTION_DDOT = 0

CCSDS_OMM_VERS = 2.0
CREATION_DATE  = 
ORIGINATOR     = 

OBJECT_NAME    = STARLINK-37045
OBJECT_ID      = 2026-042F
CENTER_NAME    = EARTH
REF_FRAME      = TEME
TIME_SYSTEM    = UTC
MEAN_ELEMENT_THEORY = SGP/SGP4

EPOCH          = 2026-03-16T06:00:02.999808
MEAN_MOTION    = 15.82927545
ECCENTRICITY   = .0001009
INCLINATION    = 53.1597
RA_OF_ASC_NODE = 161.8612
ARG_OF_PERICENTER = 88.8584
MEAN_ANOMALY   = 170.6490

EPHEMERIS_TYPE = 0
CLASSIFICATION_TYPE = U
NORAD_CAT_ID   = 68074
ELEMENT_SET_NO = 999
REV_AT_EPOCH   = 310
BSTAR          = -.78015165E-2
MEAN_MOTION_DOT = -.1497071E-1
MEAN_MOTION_DDOT = 0

CCSDS_OMM_VERS = 2.0
CREATION_DATE  = 
ORIGINATOR     = 

OBJECT_NAME    = STARLINK-37026
OBJECT_ID      = 2026-042G
CENTER_NAME    = EARTH
REF_FRAME      = TEME
TIME_SYSTEM    = UTC
MEAN_ELEMENT_THEORY = SGP/SGP4

EPOCH          = 2026-03-16T06:00:02.999808
MEAN_MOTION    = 15.83021886
ECCENTRICITY   = .00008466
INCLINATION    = 53.1596
RA_OF_ASC_NODE = 161.8526
ARG_OF_PERICENTER = 84.0679
MEAN_ANOMALY   = 179.5670

EPHEMERIS_TYPE = 0
CLASSIFICATION_TYPE = U
NORAD_CAT_ID   = 68075
ELEMENT_SET_NO = 999
REV_AT_EPOCH   = 310
BSTAR          = -.8081662E-2
MEAN_MOTION_DOT = -.1550258E-1
MEAN_MOTION_DDOT = 0

CCSDS_OMM_VERS = 2.0
CREATION_DATE  = 
ORIGINATOR     = 

OBJECT_NAME    = STARLINK-37023
OBJECT_ID      = 2026-042H
CENTER_NAME    = EARTH
REF_FRAME      = TEME
TIME_SYSTEM    = UTC
MEAN_ELEMENT_THEORY = SGP/SGP4

EPOCH          = 2026-03-16T06:00:02.999808
MEAN_MOTION    = 15.83111174
ECCENTRICITY   = .00010728
INCLINATION    = 53.1595
RA_OF_ASC_NODE = 161.8442
ARG_OF_PERICENTER = 99.6342
MEAN_ANOMALY   = 168.0681

EPHEMERIS_TYPE = 0
CLASSIFICATION_TYPE = U
NORAD_CAT_ID   = 68076
ELEMENT_SET_NO = 999
REV_AT_EPOCH   = 310
BSTAR          = -.80099759E-2
MEAN_MOTION_DOT = -.1544115E-1
MEAN_MOTION_DDOT = 0

CCSDS_OMM_VERS = 2.0
CREATION_DATE  = 
ORIGINATOR     = 

OBJECT_NAME    = STARLINK-37036
OBJECT_ID      = 2026-042J
CENTER_NAME    = EARTH
REF_FRAME      = TEME
TIME_SYSTEM    = UTC
MEAN_ELEMENT_THEORY = SGP/SGP4

EPOCH          = 2026-03-16T06:00:02.999808
MEAN_MOTION    = 15.83235005
ECCENTRICITY   = .00011624
INCLINATION    = 53.1595
RA_OF_ASC_NODE = 161.8359
ARG_OF_PERICENTER = 88.5559
MEAN_ANOMALY   = 183.1200

EPHEMERIS_TYPE = 0
CLASSIFICATION_TYPE = U
NORAD_CAT_ID   = 68077
ELEMENT_SET_NO = 999
REV_AT_EPOCH   = 310
BSTAR          = -.79696625E-2
MEAN_MOTION_DOT = -.1545365E-1
MEAN_MOTION_DDOT = 0

CCSDS_OMM_VERS = 2.0
CREATION_DATE  = 
ORIGINATOR     = 

OBJECT_NAME    = STARLINK-36973
OBJECT_ID      = 2026-042K
CENTER_NAME    = EARTH
REF_FRAME      = TEME
TIME_SYSTEM    = UTC
MEAN_ELEMENT_THEORY = SGP/SGP4

EPOCH          = 2026-03-16T06:00:02.999808
MEAN_MOTION    = 15.83452296
ECCENTRICITY   = .00008871
INCLINATION    = 53.1597
RA_OF_ASC_NODE = 161.8191
ARG_OF_PERICENTER = 98.7764
MEAN_ANOMALY   = 180.9288

EPHEMERIS_TYPE = 0
CLASSIFICATION_TYPE = U
NORAD_CAT_ID   = 68078
ELEMENT_SET_NO = 999
REV_AT_EPOCH   = 310
BSTAR          = -.80209291E-2
MEAN_MOTION_DOT = -.1568107E-1
MEAN_MOTION_DDOT = 0

CCSDS_OMM_VERS = 2.0
CREATION_DATE  = 
ORIGINATOR     = 

OBJECT_NAME    = STARLINK-37063
OBJECT_ID      = 2026-042L
CENTER_NAME    = EARTH
REF_FRAME      = TEME
TIME_SYSTEM    = UTC
MEAN_ELEMENT_THEORY = SGP/SGP4

EPOCH          = 2026-03-16T06:00:02.999808
MEAN_MOTION    = 15.83368419
ECCENTRICITY   = .00010958
INCLINATION    = 53.1594
RA_OF_ASC_NODE = 161.8276
ARG_OF_PERICENTER = 95.9568
MEAN_ANOMALY   = 179.6610

EPHEMERIS_TYPE = 0
CLASSIFICATION_TYPE = U
NORAD_CAT_ID   = 68079
ELEMENT_SET_NO = 999
REV_AT_EPOCH   = 310
BSTAR          = -.79491386E-2
MEAN_MOTION_DOT = -.1550485E-1
MEAN_MOTION_DDOT = 0

CCSDS_OMM_VERS = 2.0
CREATION_DATE  = 
ORIGINATOR     = 

OBJECT_NAME    = STARLINK-37051
OBJECT_ID      = 2026-042M
CENTER_NAME    = EARTH
REF_FRAME      = TEME
TIME_SYSTEM    = UTC
MEAN_ELEMENT_THEORY = SGP/SGP4

EPOCH          = 2026-03-16T06:00:02.999808
MEAN_MOTION    = 15.83646151
ECCENTRICITY   = .00009603
INCLINATION    = 53.1595
RA_OF_ASC_NODE = 161.8024
ARG_OF_PERICENTER = 77.9040
MEAN_ANOMALY   = 209.8317

EPHEMERIS_TYPE = 0
CLASSIFICATION_TYPE = U
NORAD_CAT_ID   = 68080
ELEMENT_SET_NO = 999
REV_AT_EPOCH   = 310
BSTAR          = -.80210518E-2
MEAN_MOTION_DOT = -.1581001E-1
MEAN_MOTION_DDOT = 0

CCSDS_OMM_VERS = 2.0
CREATION_DATE  = 
ORIGINATOR     = 

OBJECT_NAME    = STARLINK-37066
OBJECT_ID      = 2026-042N
CENTER_NAME    = EARTH
REF_FRAME      = TEME
TIME_SYSTEM    = UTC
MEAN_ELEMENT_THEORY = SGP/SGP4

EPOCH          = 2026-03-16T06:00:02.999808
MEAN_MOTION    = 15.83538781
ECCENTRICITY   = .00010513
INCLINATION    = 53.1600
RA_OF_ASC_NODE = 161.8109
ARG_OF_PERICENTER = 98.7101
MEAN_ANOMALY   = 185.0504

EPHEMERIS_TYPE = 0
CLASSIFICATION_TYPE = U
NORAD_CAT_ID   = 68081
ELEMENT_SET_NO = 999
REV_AT_EPOCH   = 310
BSTAR          = -.80467325E-2
MEAN_MOTION_DOT = -.1578364E-1
MEAN_MOTION_DDOT = 0

CCSDS_OMM_VERS = 2.0
CREATION_DATE  = 
ORIGINATOR     = 

OBJECT_NAME    = STARLINK-37054
OBJECT_ID      = 2026-042P
CENTER_NAME    = EARTH
REF_FRAME      = TEME
TIME_SYSTEM    = UTC
MEAN_ELEMENT_THEORY = SGP/SGP4

EPOCH          = 2026-03-16T06:00:02.999808
MEAN_MOTION    = 15.83777296
ECCENTRICITY   = .00011966
INCLINATION    = 53.1597
RA_OF_ASC_NODE = 161.7945
ARG_OF_PERICENTER = 102.6414
MEAN_ANOMALY   = 188.9736

EPHEMERIS_TYPE = 0
CLASSIFICATION_TYPE = U
NORAD_CAT_ID   = 68082
ELEMENT_SET_NO = 999
REV_AT_EPOCH   = 310
BSTAR          = -.79522267E-2
MEAN_MOTION_DOT = -.157799E-1
MEAN_MOTION_DDOT = 0

CCSDS_OMM_VERS = 2.0
CREATION_DATE  = 
ORIGINATOR     = 

OBJECT_NAME    = STARLINK-37065
OBJECT_ID      = 2026-042Q
CENTER_NAME    = EARTH
REF_FRAME      = TEME
TIME_SYSTEM    = UTC
MEAN_ELEMENT_THEORY = SGP/SGP4

EPOCH          = 2026-03-16T06:00:02.999808
MEAN_MOTION    = 15.83879480
ECCENTRICITY   = .00010167
INCLINATION    = 53.1599
RA_OF_ASC_NODE = 161.7864
ARG_OF_PERICENTER = 89.4999
MEAN_ANOMALY   = 206.0805

EPHEMERIS_TYPE = 0
CLASSIFICATION_TYPE = U
NORAD_CAT_ID   = 68083
ELEMENT_SET_NO = 999
REV_AT_EPOCH   = 310
BSTAR          = -.79337084E-2
MEAN_MOTION_DOT = -.1581424E-1
MEAN_MOTION_DDOT = 0

CCSDS_OMM_VERS = 2.0
CREATION_DATE  = 
ORIGINATOR     = 

OBJECT_NAME    = STARLINK-37037
OBJECT_ID      = 2026-042R
CENTER_NAME    = EARTH
REF_FRAME      = TEME
TIME_SYSTEM    = UTC
MEAN_ELEMENT_THEORY = SGP/SGP4

EPOCH          = 2026-03-16T06:00:02.999808
MEAN_MOTION    = 15.83965180
ECCENTRICITY   = .00007479
INCLINATION    = 53.1594
RA_OF_ASC_NODE = 161.7780
ARG_OF_PERICENTER = 89.9595
MEAN_ANOMALY   = 209.6424

EPHEMERIS_TYPE = 0
CLASSIFICATION_TYPE = U
NORAD_CAT_ID   = 68084
ELEMENT_SET_NO = 999
REV_AT_EPOCH   = 310
BSTAR          = -.79346258E-2
MEAN_MOTION_DOT = -.1587099E-1
MEAN_MOTION_DDOT = 0

